[{"OBJECT_NAME":"STARLINK-6107","OBJECT_ID":"2023-046AA","EPOCH":"2026-03-09T22:00:01.999584","MEAN_MOTION":15.11906398,"ECCENTRICITY":0.00012826,"INCLINATION":43,"RA_OF_ASC_NODE":144.6373,"ARG_OF_PERICENTER":308.1949,"MEAN_ANOMALY":187.7345,"EPHEMERIS_TYPE":0,"CLASSIFICATION_TYPE":"U","NORAD_CAT_ID":56117,"ELEMENT_SET_NO":999,"REV_AT_EPOCH":567,"BSTAR":0.00068158397,"MEAN_MOTION_DOT":0.00011675,"MEAN_MOTION_DDOT":0},{"OBJECT_NAME":"FENGYUN 1C DEB","OBJECT_ID":"1999-025EXB","EPOCH":"2026-02-23T13:42:59.544864","MEAN_MOTION":14.51393564,"ECCENTRICITY":0.0280295,"INCLINATION":99.4251,"RA_OF_ASC_NODE":186.6378,"ARG_OF_PERICENTER":116.5278,"MEAN_ANOMALY":246.4942,"EPHEMERIS_TYPE":0,"CLASSIFICATION_TYPE":"U","NORAD_CAT_ID":40695,"ELEMENT_SET_NO":999,"REV_AT_EPOCH":32922,"BSTAR":0.00034500254,"MEAN_MOTION_DOT":2.228e-5,"MEAN_MOTION_DDOT":0}]
